COSMOS 2433 (720)       
1 32275U 07052A   22096.54660119 -.00000086  00000+0  00000+0 0  9997
2 32275  66.0836   7.0561 0002945 288.1431 248.0653  2.13104041112431
COSMOS 2432 (719)       
1 32276U 07052B   22095.66168050 -.00000086  00000+0  00000+0 0  9997
2 32276  66.0973   7.1846 0011669 331.1710 194.6738  2.13103487112414
COSMOS 2434 (721)       
1 32393U 07065A   22095.83202536  .00000031  00000+0  00000+0 0  9997
2 32393  64.3986 243.9034 0004786  80.0980 157.2163  2.13103070111121
COSMOS 2436 (723)       
1 32395U 07065C   22095.76073582  .00000031  00000+0  00000+0 0  9998
2 32395  64.4072 243.9624 0016081   7.5398 311.0016  2.13102934111050
COSMOS 2456 (730)       
1 36111U 09070A   22095.45772747  .00000029  00000+0  00000+0 0  9998
2 36111  64.3336 123.5607 0005634 300.6214 176.1261  2.13099170 95782
COSMOS 2457 (733)       
1 36112U 09070B   22095.61413609  .00000029  00000+0  00000+0 0  9996
2 36112  64.3169 123.4316 0004628 191.9654 171.4875  2.13101373 95793
COSMOS 2461 (735)       
1 36401U 10007B   22095.67692020 -.00000086  00000+0  00000+0 0  9995
2 36401  65.9703   5.9336 0022071   5.0906  81.4275  2.13103791 94146
COSMOS 2460 (732)       
1 36402U 10007C   22096.07099424 -.00000086  00000+0  00000+0 0  9990
2 36402  65.9572   5.8710 0002148   9.2384 327.3300  2.13106329 94146
COSMOS 2464 (736)       
1 37139U 10041C   22095.93808490  .00000031  00000+0  00000+0 0  9990
2 37139  63.9979 243.0115 0029777  13.7994 163.6487  2.13100678 90203
COSMOS 2476 (744)       
1 37867U 11064A   22096.52039380  .00000032  00000+0  00000+0 0  9995
2 37867  64.6240 124.8523 0022989 240.1282 236.7475  2.13101856 81155
COSMOS 2477 (745)       
1 37868U 11064B   22095.62389052  .00000029  00000+0  00000+0 0  9996
2 37868  64.6311 124.9468 0020309 241.2580  86.0033  2.13101691 81086
COSMOS 2475 (743)       
1 37869U 11064C   22096.33142250  .00000031  00000+0  00000+0 0  9996
2 37869  64.6388 124.9296 0024699 257.6351 210.3591  2.13101888 81116
COSMOS 2485 (747)       
1 39155U 13019A   22095.82382124  .00000030  00000+0  00000+0 0  9996
2 39155  64.7878 125.2891 0023299 235.9313 110.9571  2.13101863 69604
COSMOS 2492 (754)       
1 39620U 14012A   22096.49644969 -.00000086  00000+0  00000+0 0  9991
2 39620  65.8439   5.5485 0014702 327.5496 209.9055  2.13103183 62576
COSMOS 2500 (755)       
1 40001U 14032A   22095.70285955 -.00000086  00000+0  00000+0 0  9997
2 40001  65.7830   5.4414 0004675 215.6503 291.8480  2.13102435 60771
COSMOS 2501 (702K)      
1 40315U 14075A   22095.78431811  .00000030  00000+0  00000+0 0  9992
2 40315  63.7063 243.7132 0016767 205.4184 172.2010  2.13101367 57181
COSMOS 2514 (751)       
1 41330U 16008A   22095.74141878 -.00000087  00000+0  00000+0 0  9998
2 41330  65.5844   5.1513 0008442 221.3152 139.4606  2.13102787 47948
COSMOS 2516 (753)       
1 41554U 16032A   22096.02070377  .00000031  00000+0  00000+0 0  9998
2 41554  63.9326 243.9609 0012546 211.2435 265.0674  2.13106062 45559
COSMOS 2522 (752)       
1 42939U 17055A   22095.59473471  .00000029  00000+0  00000+0 0  9992
2 42939  64.1663 244.3492 0005416 239.4228 128.0986  2.13101870 35307
COSMOS 2527 (756)       
1 43508U 18053A   22096.11929837  .00000031  00000+0  00000+0 0  9998
2 43508  64.9513 125.2633 0009537 239.8262 202.2325  2.13102556 29606
COSMOS 2529 (757)       
1 43687U 18086A   22095.70284250  .00000031  00000+0  00000+0 0  9999
2 43687  64.3805 244.6421 0007519 272.1729 133.7979  2.13102040 26618
COSMOS 2534 (758)       
1 44299U 19030A   22096.14393861  .00000033  00000+0  00000+0 0  9999
2 44299  64.4524 244.5050 0010507 295.3707 223.6116  2.13101965 22262
COSMOS 2544 (759)       
1 44850U 19088A   22095.89331877  .00000030  00000+0  00000+0 0  9992
2 44850  64.9364 125.1255 0014344 262.4631  49.7537  2.13102322 18028
COSMOS 2545 (760)       
1 45358U 20018A   22095.38567697 -.00000088  00000+0  00000+0 0  9990
2 45358  64.9214   5.8306 0008591 261.5076 230.8436  2.13102663 15977
COSMOS 2547 (705K)      
1 46805U 20075A   22096.45149363  .00000034  00000+0  00000+0 0  9996
2 46805  64.6762 243.8978 0005443 244.0890 198.2729  2.13103062 11244
